[{"name": "BEIDOU-2 IGSO-1 (C06)", "line1": "1 36828U 10036A   26164.92579899 -.00000047  00000+0  00000+0 0  9994", "line2": "2 36828  54.3020 162.9897 0059243 225.1130 315.0800  1.00272866 58060"}, {"name": "BEIDOU-2 G4 (C04)", "line1": "1 37210U 10057A   26165.00311021 -.00000106  00000+0  00000+0 0  9990", "line2": "2 37210   3.6376  68.9657 0005220 197.0833 157.3882  1.00270924 57259"}, {"name": "BEIDOU-2 IGSO-2 (C07)", "line1": "1 37256U 10068A   26164.72875620 -.00000220  00000+0  00000+0 0  9997", "line2": "2 37256  47.5542 271.8769 0055791 212.4593 147.8406  1.00284188 56761"}, {"name": "BEIDOU-2 IGSO-3 (C08)", "line1": "1 37384U 11013A   26161.71639865 -.00000195  00000+0  00000+0 0  9996", "line2": "2 37384  62.3981  40.2143 0034353 184.2630  40.3873  1.00268972 55596"}, {"name": "BEIDOU-2 IGSO-4 (C09)", "line1": "1 37763U 11038A   26164.96963421  .00000062  00000+0  00000+0 0  9994", "line2": "2 37763  54.5997 165.7018 0159386 231.3732 307.5435  1.00285286 54613"}, {"name": "BEIDOU-2 IGSO-5 (C10)", "line1": "1 37948U 11073A   26164.78949546 -.00000164  00000+0  00000+0 0  9994", "line2": "2 37948  47.6849 271.5886 0113838 221.6054 144.8748  1.00273385 53106"}, {"name": "BEIDOU-2 G5 (C05)", "line1": "1 38091U 12008A   26164.99612735  .00000064  00000+0  00000+0 0  9991", "line2": "2 38091   3.5644  69.7165 0009162 273.1782 336.6690  1.00271029 52335"}, {"name": "BEIDOU-2 M3 (C11)", "line1": "1 38250U 12018A   26163.89300492 -.00000070  00000+0  00000+0 0  9999", "line2": "2 38250  55.7621 305.0207 0020100 274.1537  85.5973  1.86229873 95866"}, {"name": "BEIDOU-2 M4 (C12)", "line1": "1 38251U 12018B   26164.36225567 -.00000070  00000+0  00000+0 0  9992", "line2": "2 38251  55.6617 304.2191 0011287 276.0779  83.7740  1.86229521 95872"}, {"name": "BEIDOU-2 M6 (C14)", "line1": "1 38775U 12050B   26164.07202103 -.00000056  00000+0  00000+0 0  9992", "line2": "2 38775  56.5408  63.0305 0013772 356.7295   3.2873  1.86230840 93236"}, {"name": "BEIDOU-2 G6 (C02)", "line1": "1 38953U 12059A   26164.96167564 -.00000170  00000+0  00000+0 0  9995", "line2": "2 38953   4.4119  73.5571 0009636 324.3484 294.5967  1.00272624 49873"}, {"name": "BEIDOU-3S IGSO-1S (C31)", "line1": "1 40549U 15019A   26164.85509376 -.00000180  00000+0  00000+0 0  9998", "line2": "2 40549  49.2022 295.5028 0038980 190.8161 175.4083  1.00251097 41040"}, {"name": "BEIDOU-3S M2S (C58)", "line1": "1 40748U 15037A   26162.95383127 -.00000067  00000+0  00000+0 0  9996", "line2": "2 40748  54.8763 302.2271 0008107 260.4209  99.4710  1.86232251 74027"}, {"name": "BEIDOU-3S M1S (C57)", "line1": "1 40749U 15037B   26164.23564090 -.00000069  00000+0  00000+0 0  9992", "line2": "2 40749  54.8712 302.1701 0003517  61.4306 298.5865  1.86254754 74054"}, {"name": "BEIDOU-3S IGSO-2S (C56)", "line1": "1 40938U 15053A   26163.74469534 -.00000142  00000+0  00000+0 0  9994", "line2": "2 40938  49.2285 258.8368 0065652 191.9654 173.7671  1.00260455 39316"}, {"name": "BEIDOU-2 IGSO-6 (C13)", "line1": "1 41434U 16021A   26164.01229207 -.00000156  00000+0  00000+0 0  9999", "line2": "2 41434  60.2196  38.0819 0057077 231.5209  89.2880  1.00259939 37439"}, {"name": "BEIDOU-2 G7 (C03)", "line1": "1 41586U 16037A   26164.92631899 -.00000344  00000+0  00000+0 0  9997", "line2": "2 41586   1.7105  69.2918 0006812   3.9610 272.9086  1.00265401  6853"}, {"name": "BEIDOU-3 M1 (C19)", "line1": "1 43001U 17069A   26164.37433310 -.00000055  00000+0  00000+0 0  9993", "line2": "2 43001  56.6884  63.2107 0010559 324.8482  35.1090  1.86231168 58532"}, {"name": "BEIDOU-3 M2 (C20)", "line1": "1 43002U 17069B   26163.77611076 -.00000055  00000+0  00000+0 0  9994", "line2": "2 43002  56.6872  63.2666 0009220 350.0125   9.9939  1.86230859 58513"}, {"name": "BEIDOU-3 M7 (C27)", "line1": "1 43107U 18003A   26163.51786711 -.00000069  00000+0  00000+0 0  9995", "line2": "2 43107  54.3326 302.4785 0004908  93.1066 266.9324  1.86228217 57264"}, {"name": "BEIDOU-3 M8 (C28)", "line1": "1 43108U 18003B   26162.92575939 -.00000068  00000+0  00000+0 0  9997", "line2": "2 43108  54.3258 302.4809 0002464 263.1764  96.7794  1.86231100 57260"}, {"name": "BEIDOU-3 M4 (C22)", "line1": "1 43207U 18018A   26164.44262380 -.00000055  00000+0  00000+0 0  9991", "line2": "2 43207  56.6468  63.2728 0007728  18.2362 341.8182  1.86231089 56676"}, {"name": "BEIDOU-3 M3 (C21)", "line1": "1 43208U 18018B   26164.50910292 -.00000055  00000+0  00000+0 0  9991", "line2": "2 43208  56.6473  63.2743 0008681 341.1223  18.8726  1.86230755 56677"}, {"name": "BEIDOU-3 M9 (C29)", "line1": "1 43245U 18029A   26163.65297359 -.00000068  00000+0  00000+0 0  9995", "line2": "2 43245  54.1986 300.1083 0000893 146.7724 213.2166  1.86228237 55818"}, {"name": "BEIDOU-3 M10 (C30)", "line1": "1 43246U 18029B   26163.58735657 -.00000068  00000+0  00000+0 0  9996", "line2": "2 43246  54.1961 300.1366 0003902  39.2234 320.7882  1.86229309 55799"}, {"name": "BEIDOU-2 IGSO-7 (C16)", "line1": "1 43539U 18057A   26164.92597233  .00000007  00000+0  00000+0 0  9999", "line2": "2 43539  55.1941 163.0866 0104942 237.9534 304.7524  1.00251960 29093"}, {"name": "BEIDOU-3 M5 (C23)", "line1": "1 43581U 18062A   26164.34844029  .00000114  00000+0  00000+0 0  9995", "line2": "2 43581  54.0854 182.4348 0005555 288.6407  71.3585  1.86228409 53562"}, {"name": "BEIDOU-3 M6 (C24)", "line1": "1 43582U 18062B   26163.67493906  .00000122  00000+0  00000+0 0  9994", "line2": "2 43582  54.0851 182.4468 0004877   9.6750 350.3966  1.86227626 53553"}, {"name": "BEIDOU-3 M12 (C26)", "line1": "1 43602U 18067A   26163.61333926  .00000122  00000+0  00000+0 0  9991", "line2": "2 43602  54.1800 181.1956 0007719  30.1109 329.9936  1.86227819 53030"}, {"name": "BEIDOU-3 M11 (C25)", "line1": "1 43603U 18067B   26164.28534833  .00000115  00000+0  00000+0 0  9998", "line2": "2 43603  54.1775 181.1364 0004432  13.2229 346.8460  1.86227214 53072"}, {"name": "BEIDOU-3 M13 (C32)", "line1": "1 43622U 18072A   26164.24018493 -.00000056  00000+0  00000+0 0  9995", "line2": "2 43622  56.6211  62.7905 0007377 328.0802  31.9020  1.86231417 52584"}, {"name": "BEIDOU-3 M14 (C33)", "line1": "1 43623U 18072B   26164.64258037 -.00000055  00000+0  00000+0 0  9999", "line2": "2 43623  56.6230  62.7716 0006155 359.5905   0.4373  1.86231409 52585"}, {"name": "BEIDOU-3 M16 (C35)", "line1": "1 43647U 18078A   26164.26100350 -.00000068  00000+0  00000+0 0  9997", "line2": "2 43647  54.0937 300.1238 0007221  40.8616 319.1754  1.86232170 52083"}, {"name": "BEIDOU-3 M15 (C34)", "line1": "1 43648U 18078B   26163.85334519 -.00000068  00000+0  00000+0 0  9998", "line2": "2 43648  54.0899 300.1384 0004241  57.4924 302.5317  1.86232293 52096"}, {"name": "BEIDOU-3 G1 (C59)", "line1": "1 43683U 18085A   26164.93619904 -.00000101  00000+0  00000+0 0  9997", "line2": "2 43683   2.8586  97.4788 0008106 348.8747 312.8893  1.00270549 28028"}, {"name": "BEIDOU-3 M17 (C36)", "line1": "1 43706U 18093A   26161.46407593  .00000127  00000+0  00000+0 0  9993", "line2": "2 43706  54.1687 182.5246 0010075 291.4418 158.4113  1.86228347 51418"}, {"name": "BEIDOU-3 M18 (C37)", "line1": "1 43707U 18093B   26163.34119720  .00000125  00000+0  00000+0 0  9993", "line2": "2 43707  54.1696 182.4530 0007900 320.5201  39.4855  1.86226356 51443"}, {"name": "BEIDOU-3 IGSO-1 (C38)", "line1": "1 44204U 19023A   26157.95428288 -.00000215  00000+0  00000+0 0  9993", "line2": "2 44204  58.6799  37.7569 0025434 225.6649  92.8731  1.00294886  7105"}, {"name": "BEIDOU-2 G8 (C01)", "line1": "1 44231U 19027A   26164.93316569 -.00000238  00000+0  00000+0 0  9996", "line2": "2 44231   1.6484  74.5018 0010250 282.1771  26.0466  1.00271854 26044"}, {"name": "BEIDOU-3 IGSO-2 (C39)", "line1": "1 44337U 19035A   26164.59235787 -.00000057  00000+0  00000+0 0  9995", "line2": "2 44337  55.2457 158.8942 0039933 216.5217 219.5102  1.00267282 25633"}, {"name": "BEIDOU-3 M24 (C46)", "line1": "1 44542U 19061A   26162.33598668  .00000129  00000+0  00000+0 0  9991", "line2": "2 44542  54.3962 182.9254 0008267 358.9131   1.1499  1.86229258 45684"}, {"name": "BEIDOU-3 M23 (C45)", "line1": "1 44543U 19061B   26164.72067485  .00000110  00000+0  00000+0 0  9995", "line2": "2 44543  54.3948 182.8132 0005590 338.2284  92.2585  1.86227308 45736"}, {"name": "BEIDOU-3 IGSO-3 (C40)", "line1": "1 44709U 19073A   26136.81046384 -.00000217  00000+0  00000+0 0  9995", "line2": "2 44709  54.8566 281.2355 0042953 189.4588 170.3676  1.00246251 24144"}, {"name": "BEIDOU-3 M22 (C44)", "line1": "1 44793U 19078A   26164.32352214 -.00000068  00000+0  00000+0 0  9996", "line2": "2 44793  53.9400 299.9645 0006438  50.5635 309.4766  1.86227293 44574"}, {"name": "BEIDOU-3 M21 (C43)", "line1": "1 44794U 19078B   26164.46345251 -.00000068  00000+0  00000+0 0  9995", "line2": "2 44794  53.9128 299.9208 0004278  48.5109 311.5090  1.86227756 44589"}, {"name": "BEIDOU-3 M19 (C41)", "line1": "1 44864U 19090A   26164.44271965 -.00000055  00000+0  00000+0 0  9991", "line2": "2 44864  56.5552  62.9149 0017908 297.9147 245.5055  1.86231429 44168"}, {"name": "BEIDOU-3 M20 (C42)", "line1": "1 44865U 19090B   26164.84162664 -.00000055  00000+0  00000+0 0  9991", "line2": "2 44865  56.5575  62.9364 0015702 311.9773 228.4783  1.86231373 44150"}, {"name": "BEIDOU-3 G2 (C60)", "line1": "1 45344U 20017A   26164.95668516 -.00000134  00000+0  00000+0 0  9992", "line2": "2 45344   2.8563  47.2906 0002115  32.3946 247.0597  1.00272441 23224"}, {"name": "BEIDOU-3 G3 (C61)", "line1": "1 45807U 20040A   26164.92640566 -.00000345  00000+0  00000+0 0  9998", "line2": "2 45807   2.4378  67.4395 0002459 336.0860 302.7633  1.00268335 22039"}, {"name": "BEIDOU-3 G4 (C62)", "line1": "1 56564U 23066A   26164.93221236 -.00000271  00000+0  00000+0 0  9999", "line2": "2 56564   0.4906 330.6144 0004294 182.0074 225.2109  1.00274817 11361"}, {"name": "BEIDOU-3 M28 (C50)", "line1": "1 58654U 23207A   26164.00359830 -.00000057  00000+0  00000+0 0  9990", "line2": "2 58654  55.7492  62.4443 0003374 346.0621  13.9544  1.86229633 16760"}, {"name": "BEIDOU-3 M26 (C48)", "line1": "1 58655U 23207B   26161.11630189 -.00000052  00000+0  00000+0 0  9994", "line2": "2 58655  55.7488  62.5282 0003349 318.7202  41.2779  1.86229681 16690"}, {"name": "BEIDOU-3 M25 (C47)", "line1": "1 61186U 24168B   26163.83690193 -.00000069  00000+0  00000+0 0  9994", "line2": "2 61186  54.4778 302.3939 0003000 301.8949 199.4569  1.86229830 11706"}, {"name": "BEIDOU-3 M27 (C49)", "line1": "1 61187U 24168C   26164.49906013 -.00000070  00000+0  00000+0 0  9991", "line2": "2 61187  54.4725 302.3538 0001596  50.9601 309.3604  1.86229877  9192"}]